GALAXY 11 (G-11)        
1 26038U 99071A   25046.34724584 -.00000280  00000+0  00000+0 0  9998
2 26038   5.5035  76.4364 0009329 297.7483  36.2250  0.99030584 92188
INTELSAT 9 (IS-9)       
1 26451U 00043A   25047.51552579 -.00000009  00000+0  00000+0 0  9990
2 26451   9.3188  53.5677 0003108 289.6946  55.3123  1.00273588 39261
INTELSAT 10 (IS-10)     
1 26766U 01019A   25047.51552579 -.00000004  00000+0  00000+0 0  9998
2 26766   7.9099  64.2097 0003961 262.8312  71.3775  1.00273047 40743
INTELSAT 901 (IS-901)   
1 26824U 01024A   25045.07516958 -.00000207  00000+0  00000+0 0  9994
2 26824   0.0244 110.7748 0002830 241.1854 151.9226  1.00271794 18095
INTELSAT 902 (IS-902)   
1 26900U 01039A   25044.53201993 -.00000289  00000+0  00000+0 0  9995
2 26900   4.8771  77.7530 0004561 249.1893 318.2767  1.00271908 85798
INTELSAT 904 (IS-904)   
1 27380U 02007A   25045.82194156 -.00000216  00000+0  00000+0 0  9999
2 27380   5.6947  75.0132 0003326 258.8781  77.5622  1.00271505 84208
DIRECTV 5 (TEMPO 1)     
1 27426U 02023A   25047.59111432 -.00000052  00000+0  00000+0 0  9998
2 27426   3.6311  81.4120 0003488 252.2605 275.8144  1.00271413 83256
INTELSAT 905 (IS-905)   
1 27438U 02027A   25042.38725436 -.00000197  00000+0  00000+0 0  9992
2 27438   5.5133  75.6906 0003014 259.5229 281.3728  1.00271028 46448
GALAXY 3C (G-3C)        
1 27445U 02030A   25047.14025841 -.00000149  00000+0  00000+0 0  9993
2 27445   2.4809  84.3241 0002675  50.6243 327.0295  1.00271420 41627
INTELSAT 906 (IS-906)   
1 27513U 02041A   25045.78355528  .00000011  00000+0  00000+0 0  9994
2 27513   4.5587  78.9423 0004399 217.2172 195.0943  1.00272963 82145
GALAXY 23 (G-23)        
1 27854U 03034A   25047.58184228  .00000017  00000+0  00000+0 0  9998
2 27854   1.9392  85.8394 0002923 249.7275 259.8024  1.00272749 78873
GALAXY 13 (HORIZONS-1)  
1 27954U 03044A   25047.55359103  .00000137  00000+0  00000+0 0  9996
2 27954   0.1597  94.6619 0002171 242.8242 218.5842  1.00274563 41701
INTELSAT 10-02          
1 28358U 04022A   25046.11059895 -.00000012  00000+0  00000+0 0  9991
2 28358   0.0419 277.9500 0000763 105.5486 160.6669  1.00272809 75675
XM-3 (RHYTHM)           
1 28626U 05008A   25046.33522352 -.00000199  00000+0  00000+0 0  9997
2 28626   0.0743 271.4061 0002260  36.7674 231.7192  1.00275197 37742
DIRECTV 8               
1 28659U 05019A   25047.64908558  .00000007  00000+0  00000+0 0  9993
2 28659   0.0205 112.7621 0003097 224.5805 284.1270  1.00272765 72209
GALAXY 28 (G-28)        
1 28702U 05022A   25046.07229068 -.00000186  00000+0  00000+0 0  9993
2 28702   2.0400  85.0542 0005476 211.6280 145.6293  1.00271154 47094
GALAXY 16 (G-16)        
1 29236U 06023A   25047.60253865 -.00000121  00000+0  00000+0 0  9999
2 29236   0.0572 257.9746 0002966  82.9415 283.7946  1.00272135 68105
DIRECTV 9S              
1 29494U 06043A   25047.59953407 -.00000108  00000+0  00000+0 0  9999
2 29494   1.1634  86.9281 0003241 252.3283 282.1767  1.00272398 46515
GALAXY 17 (G-17)        
1 31307U 07016B   25046.06977791 -.00000207  00000+0  00000+0 0  9999
2 31307   1.7344  86.2076 0004936 221.9679 137.2442  1.00271878 64919
DIRECTV 10              
1 31862U 07032A   25046.61422175 -.00000101  00000+0  00000+0 0  9998
2 31862   0.0016 302.0694 0000399  55.0846 267.0019  1.00271839 40710
INTELSAT 11 (IS-11)     
1 32253U 07044B   25045.94451878 -.00000270  00000+0  00000+0 0  9990
2 32253   2.2935  84.7613 0003263 247.3434 110.0994  1.00271776 63608
HORIZONS-2              
1 32388U 07063B   25045.81316664 -.00000255  00000+0  00000+0 0  9992
2 32388   1.3407  86.7864 0002232 254.8049  22.3916  1.00272868 62994
DIRECTV 11              
1 32729U 08013A   25047.60253909 -.00000121  00000+0  00000+0 0  9990
2 32729   0.0343 325.0970 0000458  11.1641 288.2730  1.00273154 40728
GALAXY 18 (G-18)        
1 32951U 08024A   25047.57929214  .00000031  00000+0  00000+0 0  9993
2 32951   0.0202 100.0707 0003262 240.7095 251.5367  1.00270144 40980
INTELSAT 25 (IS-25)     
1 33153U 08034A   25045.82159404 -.00000226  00000+0  00000+0 0  9998
2 33153   1.4475  86.4413 0003179 246.5400  76.3398  1.00271230 60801
GALAXY 19 (G-19)        
1 33376U 08045A   25047.60347755 -.00000134  00000+0  00000+0 0  9991
2 33376   0.0566 276.0799 0003073  60.1302 290.8489  1.00271962 60033
FM-5                    
1 35493U 09034A   25046.33522341 -.00000204  00000+0  00000+0 0  9995
2 35493   0.0117 174.1381 0007733  25.8675 340.1071  1.00305623 41767
INTELSAT 14 (IS-14)     
1 36097U 09064A   25045.81890075 -.00000275  00000+0  00000+0 0  9991
2 36097   0.0178 109.8249 0002424 220.6767  64.3752  1.00270926 55800
INTELSAT 15 (IS-15)     
1 36106U 09067A   25047.49560874 -.00000181  00000+0  00000+0 0  9998
2 36106   0.0154 101.1663 0002312 226.7839  82.3256  1.00272198 36354
DIRECTV 12              
1 36131U 09075A   25047.59855506 -.00000098  00000+0  00000+0 0  9992
2 36131   0.0255 259.1135 0000603 154.7594 205.6942  1.00271398 41686
INTELSAT 16 (IS-16)     
1 36397U 10006A   25045.81273225 -.00000246  00000+0  00000+0 0  9992
2 36397   0.0240 108.5336 0002106 219.1865  33.7420  1.00269554 54766
XM-5                    
1 37185U 10053A   25044.73307659 -.00000029  00000+0  00000+0 0  9998
2 37185   0.0201 121.6690 0000667  50.5790 120.4612  1.00271318 52588
INTELSAT 17 (IS-17)     
1 37238U 10065B   25047.51552579  .00000003  00000+0  00000+0 0  9993
2 37238   0.0210 115.0518 0002515 220.5389  62.7151  1.00271374 48370
INTELSAT 28 (IS-28)     
1 37392U 11016A   25045.82724126 -.00000051  00000+0  00000+0 0  9996
2 37392   0.5428  89.3755 0004196 233.2720 117.3209  1.00146138 48392
INTELSAT 18 (IS-18)     
1 37834U 11056A   25047.59437499  .00000057  00000+0  00000+0 0  9996
2 37834   0.0161 121.5866 0001831 251.5044 167.6711  1.00271685 48942
INTELSAT 22 (IS-22)     
1 38098U 12011A   25047.53983178 -.00000054  00000+0  00000+0 0  9993
2 38098   0.0250  94.6438 0001922 249.1075  69.4284  1.00271852  2318
INTELSAT 19 (IS-19)     
1 38356U 12030A   25047.38358340 -.00000052  00000+0  00000+0 0  9999
2 38356   0.0184  99.1841 0003439 240.0121 111.4897  1.00272323 45562
INTELSAT 20 (IS-20)     
1 38740U 12043A   25047.50163916 -.00000020  00000+0  00000+0 0  9992
2 38740   0.0239 115.1433 0002449  67.2599 213.3864  1.00271339 45870
INTELSAT 21 (IS-21)     
1 38749U 12045A   25045.81629434 -.00000286  00000+0  00000+0 0  9991
2 38749   0.0338 282.9973 0002054  61.0954  36.8315  1.00271536 45632
INTELSAT 23 (IS-23)     
1 38867U 12057A   25046.04757627 -.00000285  00000+0  00000+0 0  9996
2 38867   0.0235 164.0374 0000659  48.7399 256.6207  1.00277502 45066
FM-6                    
1 39360U 13058A   25046.60239565 -.00000016  00000+0  00000+0 0  9997
2 39360   0.0158 235.7360 0000385 332.9682  37.8304  1.00273116 41182
INTELSAT 30 (IS-30)     
1 40271U 14062A   25047.06849924 -.00000147  00000+0  00000+0 0  9998
2 40271   0.0140  74.0716 0001120 313.9956  47.7898  1.00269891  1905
DIRECTV 14              
1 40333U 14078B   25047.60253892 -.00000120  00000+0  00000+0 0  9998
2 40333   0.0113  94.8475 0000162  44.7242 124.9413  1.00268581 37183
DIRECTV 15              
1 40663U 15026A   25047.59855507 -.00000097  00000+0  00000+0 0  9990
2 40663   0.0228  98.5926 0000247 308.5328 212.2982  1.00273184 35598
SKY MEXICO-1            
1 40664U 15026B   25045.81221096 -.00000236  00000+0  00000+0 0  9999
2 40664   0.0274  41.3558 0002359 299.4284  17.8850  1.00273024 35644
INTELSAT 34 (IS-34)     
1 40874U 15039A   25046.04929039 -.00000286  00000+0  00000+0 0  9999
2 40874   0.0202 109.3871 0000365 106.9873 251.1478  1.00272073 34744
INTELSAT 31 (IS-31)     
1 41581U 16035A   25044.59453337 -.00000156  00000+0  00000+0 0  9999
2 41581   0.0115 121.7040 0001837  65.6994  75.3921  1.00270312 31783
INTELSAT 36 (IS-36)     
1 41747U 16053A   25045.78727369 -.00000024  00000+0  00000+0 0  9998
2 41747   0.0176  74.1207 0001247 273.0202 149.7807  1.00263279 31066
INTELSAT 32E (IS-32E)   
1 41945U 17007B   25045.81924828 -.00000271  00000+0  00000+0 0  9995
2 41945   0.0140 104.7156 0000550 266.3714  25.7106  1.00273081 29366
INTELSAT 35E (IS-35E)   
1 42818U 17041A   25045.82098588 -.00000240  00000+0  00000+0 0  9995
2 42818   0.0438 266.7793 0002817  67.4154  71.9143  1.00271793 27920
INTELSAT 37E (IS-37E)   
1 42950U 17059A   25046.12675837 -.00000142  00000+0  00000+0 0  9994
2 42950   0.0122 106.1009 0002430 210.5393 216.3230  1.00271302 27187
AZERSPACE 2 (IS-38)     
1 43632U 18074A   25045.83679810  .00000135  00000+0  00000+0 0  9993
2 43632   0.0201 118.5338 0001328 216.1679 156.7484  1.00270594 23567
HORIZONS-3E             
1 43633U 18074B   25046.48366791 -.00000030  00000+0  00000+0 0  9992
2 43633   0.0448 288.9687 0001441 356.1718 203.6735  1.00271334 23468
AT&T T-16               
1 44333U 19034A   25047.59952984 -.00000110  00000+0  00000+0 0  9994
2 44333   0.0123 102.9417 0001320  51.1465 107.6863  1.00273302 20761
INTELSAT 39 (IS-39)     
1 44476U 19049B   25045.84009956  .00000032  00000+0  00000+0 0  9998
2 44476   0.0255 118.8978 0000799  18.2640  12.3100  1.00269689 20232
GALAXY 30 (G-30)        
1 46114U 20056C   25047.64335179  .00000042  00000+0  00000+0 0  9999
2 46114   0.0197 114.7592 0001923 221.4247 277.2636  1.00272210 16422
GALAXY 33 (G-33)        
1 54026U 22128A   25047.21637760  .00000083  00000+0  00000+0 0  9991
2 54026   0.0161  95.0846 0001868 233.8352 122.4031  1.00272589  8867
GALAXY 34 (G-34)        
1 54027U 22128B   25047.62537931  .00000064  00000+0  00000+0 0  9995
2 54027   0.0204  94.8643 0001427 239.3751 268.7218  1.00272222  9049
GALAXY 31 (G-31)        
1 54243U 22153A   25047.58194998  .00000018  00000+0  00000+0 0  9999
2 54243   0.0206 115.0095 0001346 222.4057 257.8709  1.00272448  2261
GALAXY 32 (G-32)        
1 54244U 22153B   25045.59542525 -.00000176  00000+0  00000+0 0  9998
2 54244   0.0239 110.0403 0002900 233.5891 284.5835  1.00269610  8251
GALAXY 35 (G-35)        
1 54741U 22170A   25046.39785036 -.00000162  00000+0  00000+0 0  9999
2 54741   0.0182 110.6417 0002102 218.5024 226.6005  1.00272776  8013
GALAXY 36 (G-36)        
1 54742U 22170B   25046.07229068 -.00000186  00000+0  00000+0 0  9999
2 54742   0.0115 139.8208 0002029 267.7970  34.7042  1.00272520  7885
GALAXY 37 (G-37)        
1 57493U 23112A   25047.59099900  .00000053  00000+0  00000+0 0  9992
2 57493   0.0196  86.2944 0002072 246.3617 259.9011  1.00273402  5673
